[{"OBJECT_NAME":"STARLINK-31450","OBJECT_ID":"2024-036J","EPOCH":"2026-03-09T06:54:26.460000","MEAN_MOTION":15.30189795,"ECCENTRICITY":0.00013241,"INCLINATION":53.1606,"RA_OF_ASC_NODE":79.8551,"ARG_OF_PERICENTER":88.416,"MEAN_ANOMALY":271.6992,"EPHEMERIS_TYPE":0,"CLASSIFICATION_TYPE":"U","NORAD_CAT_ID":59006,"ELEMENT_SET_NO":999,"REV_AT_EPOCH":11526,"BSTAR":1.7071386e-5,"MEAN_MOTION_DOT":1.46e-6,"MEAN_MOTION_DDOT":0},{"OBJECT_NAME":"COSMOS 1328","OBJECT_ID":"1981-117A","EPOCH":"2026-03-09T17:51:53.113536","MEAN_MOTION":15.33902077,"ECCENTRICITY":0.00108717,"INCLINATION":82.4939,"RA_OF_ASC_NODE":350.453,"ARG_OF_PERICENTER":167.9725,"MEAN_ANOMALY":192.1779,"EPHEMERIS_TYPE":0,"CLASSIFICATION_TYPE":"U","NORAD_CAT_ID":12987,"ELEMENT_SET_NO":999,"REV_AT_EPOCH":41406,"BSTAR":0.00040501644,"MEAN_MOTION_DOT":0.00013342,"MEAN_MOTION_DDOT":0}]
